{
"type": "FeatureCollection",
"name": "sindhupalchowk",
"crs": { "type": "name", "properties": { "name": "urn:ogc:def:crs:OGC:1.3:CRS84" } },
"features": [
{ "type": "Feature", "properties": { "admin_level": "6", "alt_name": "Sindhupalchok;Sindupalchok;Sindupalchock", "boundary": "administrative", "int_name": "Sindhupalchowk", "name": "सिन्धुपाल्चोक जिल्ला", "name:en": "Sindhupalchowk", "name:fa": "ناحیه سندوپالچوک", "name:ja": "シンドゥ・パルチョーク", "name:ne": "सिन्धुपाल्चोक जिल्ला", "name:ur": "سندھو پالچوک ضلع", "population": "287798", "population:date": "2011", "source:population": "Central Bureau of Statistics (CBS) Nepal", "type": "boundary", "wikidata": "Q28445", "wikipedia": "ne:सिन्धुपाल्चोक जिल्ला" }, "geometry": { "type": "MultiPolygon", "coordinates": [ [ [ [ 85.7063988, 27.6417068 ], [ 85.7065964, 27.6417425 ], [ 85.7067573, 27.6417715 ], [ 85.7067887, 27.6417772 ], [ 85.7070107, 27.6434736 ], [ 85.7068528, 27.6442283 ], [ 85.7068173, 27.6446911 ], [ 85.70671, 27.6454704 ], [ 85.706965, 27.6458354 ], [ 85.7071713, 27.6462022 ], [ 85.7072142, 27.6466679 ], [ 85.7073966, 27.6470481 ], [ 85.7075683, 27.6474758 ], [ 85.7074023, 27.6480142 ], [ 85.7076219, 27.6486162 ], [ 85.7074717, 27.6497186 ], [ 85.707498, 27.6501921 ], [ 85.7074754, 27.6504197 ], [ 85.7074288, 27.6507925 ], [ 85.7073644, 27.6518189 ], [ 85.7076366, 27.6523297 ], [ 85.7080511, 27.6528548 ], [ 85.7081155, 27.653387 ], [ 85.7076112, 27.6537576 ], [ 85.7078043, 27.6544418 ], [ 85.7074721, 27.6549165 ], [ 85.707452, 27.6549652 ], [ 85.707276, 27.6551255 ], [ 85.7068514, 27.6554379 ], [ 85.7059822, 27.6556455 ], [ 85.70533, 27.6559281 ], [ 85.7051696, 27.6560201 ], [ 85.7050192, 27.6562301 ], [ 85.7049434, 27.6564875 ], [ 85.7051359, 27.6567253 ], [ 85.7052642, 27.6565352 ], [ 85.7056182, 27.6561291 ], [ 85.7062928, 27.6559503 ], [ 85.70657, 27.6560112 ], [ 85.7068911, 27.6560496 ], [ 85.7069308, 27.6560178 ], [ 85.7074477, 27.6557863 ], [ 85.7077049, 27.6556534 ], [ 85.7082418, 27.6551034 ], [ 85.7084568, 27.654837 ], [ 85.7086068, 27.6547616 ], [ 85.7088418, 27.6547638 ], [ 85.7090976, 27.6548226 ], [ 85.7094388, 27.6549769 ], [ 85.7096091, 27.6550913 ], [ 85.7100122, 27.6556297 ], [ 85.7103298, 27.656147 ], [ 85.7108604, 27.6568378 ], [ 85.7110943, 27.6570678 ], [ 85.7113915, 27.6574315 ], [ 85.7119235, 27.6578741 ], [ 85.7120509, 27.6580287 ], [ 85.7127281, 27.6592352 ], [ 85.7129386, 27.6598665 ], [ 85.712894, 27.660209 ], [ 85.7129744, 27.6612407 ], [ 85.7130793, 27.6615869 ], [ 85.7131206, 27.6618715 ], [ 85.7132474, 27.6621592 ], [ 85.713375, 27.6622754 ], [ 85.7135242, 27.6623535 ], [ 85.713652, 27.6623908 ], [ 85.7139084, 27.6623729 ], [ 85.7139941, 27.6623353 ], [ 85.7142517, 27.6621076 ], [ 85.7144454, 27.6618229 ], [ 85.7146385, 27.6616329 ], [ 85.7147242, 27.6615954 ], [ 85.7149382, 27.661577 ], [ 85.715194, 27.6616945 ], [ 85.7153207, 27.6619618 ], [ 85.7155327, 27.6622503 ], [ 85.7157666, 27.6624803 ], [ 85.7158946, 27.6625582 ], [ 85.7160218, 27.6627309 ], [ 85.7162347, 27.662884 ], [ 85.7164268, 27.6629241 ], [ 85.7166824, 27.6630596 ], [ 85.7170237, 27.6631755 ], [ 85.717194, 27.6632922 ], [ 85.7179614, 27.6636196 ], [ 85.7181955, 27.6637752 ], [ 85.7187472, 27.6645405 ], [ 85.7188952, 27.6648284 ], [ 85.7191284, 27.6651735 ], [ 85.7192128, 27.6654044 ], [ 85.7193824, 27.6656902 ], [ 85.7195738, 27.6658453 ], [ 85.7202129, 27.6662302 ], [ 85.7205327, 27.6663483 ], [ 85.7208535, 27.6662723 ], [ 85.7209775, 27.6662114 ], [ 85.7211962, 27.666104 ], [ 85.7218389, 27.6657444 ], [ 85.7221399, 27.665384 ], [ 85.7223338, 27.665079 ], [ 85.7225914, 27.6647948 ], [ 85.7227207, 27.6645659 ], [ 85.7227641, 27.6644332 ], [ 85.7227649, 27.6642798 ], [ 85.7227123, 27.6640877 ], [ 85.7226391, 27.6638207 ], [ 85.7223208, 27.6633598 ], [ 85.7217676, 27.6629171 ], [ 85.7213419, 27.6626469 ], [ 85.7207676, 27.6621092 ], [ 85.7203219, 27.6615524 ], [ 85.7201943, 27.6613798 ], [ 85.7204935, 27.6614209 ], [ 85.7210698, 27.6614804 ], [ 85.721668, 27.6614859 ], [ 85.7225221, 27.6616043 ], [ 85.7232901, 27.6618189 ], [ 85.7238019, 27.6620131 ], [ 85.7245684, 27.6624962 ], [ 85.7250357, 27.6630893 ], [ 85.7250986, 27.6632613 ], [ 85.7251828, 27.6635689 ], [ 85.7251388, 27.6637783 ], [ 85.7249872, 27.6641785 ], [ 85.7247504, 27.6645779 ], [ 85.7246847, 27.6648638 ], [ 85.7247045, 27.6652068 ], [ 85.7248299, 27.6657246 ], [ 85.7251462, 27.6665848 ], [ 85.7252299, 27.6669871 ], [ 85.725377, 27.6673314 ], [ 85.7255883, 27.6676785 ], [ 85.7258849, 27.6680241 ], [ 85.7260975, 27.6681772 ], [ 85.7266088, 27.6683917 ], [ 85.7269501, 27.6684512 ], [ 85.7273776, 27.6684349 ], [ 85.7278045, 27.6684952 ], [ 85.7284016, 27.6686518 ], [ 85.7285726, 27.6686511 ], [ 85.7289987, 27.6688084 ], [ 85.7291695, 27.6688281 ], [ 85.729766, 27.6690997 ], [ 85.730106, 27.6693307 ], [ 85.7305523, 27.6696596 ], [ 85.7312959, 27.6702959 ], [ 85.7314439, 27.670507 ], [ 85.7314855, 27.6706608 ], [ 85.7314845, 27.6708323 ], [ 85.7312861, 27.6716922 ], [ 85.7312594, 27.6724387 ], [ 85.7311451, 27.6735295 ], [ 85.7311416, 27.6740258 ], [ 85.7311388, 27.6744093 ], [ 85.7311785, 27.6748676 ], [ 85.7313832, 27.6750832 ], [ 85.7315349, 27.6752931 ], [ 85.7324359, 27.6753348 ], [ 85.7329456, 27.675741 ], [ 85.7333289, 27.675934 ], [ 85.7334777, 27.6760505 ], [ 85.7340317, 27.6763014 ], [ 85.7342652, 27.6765133 ], [ 85.7343503, 27.6765525 ], [ 85.7345837, 27.6768028 ], [ 85.7350104, 27.6768811 ], [ 85.7356102, 27.6766745 ], [ 85.7358675, 27.6765235 ], [ 85.7367487, 27.6757825 ], [ 85.7368345, 27.675763 ], [ 85.7370707, 27.6755734 ], [ 85.7373281, 27.6754223 ], [ 85.7374136, 27.6754231 ], [ 85.7376695, 27.6754819 ], [ 85.7384781, 27.6759833 ], [ 85.7386485, 27.6760615 ], [ 85.7389038, 27.6762894 ], [ 85.7392001, 27.6767118 ], [ 85.7395198, 27.6769019 ], [ 85.7397761, 27.6769223 ], [ 85.7402043, 27.6768472 ], [ 85.74106, 27.6767738 ], [ 85.741402, 27.676889 ], [ 85.7417433, 27.6769086 ], [ 85.7420853, 27.6769478 ], [ 85.7425121, 27.6770442 ], [ 85.7430251, 27.6770826 ], [ 85.7433667, 27.6771602 ], [ 85.7441362, 27.677201 ], [ 85.7446483, 27.6773748 ], [ 85.7449893, 27.6775268 ], [ 85.7452873, 27.6777574 ], [ 85.7454994, 27.6780436 ], [ 85.7456699, 27.6781195 ], [ 85.7459268, 27.6780632 ], [ 85.7461632, 27.6778916 ], [ 85.7467666, 27.677112 ], [ 85.7468963, 27.6768831 ], [ 85.7477052, 27.6760783 ], [ 85.7484249, 27.6765766 ], [ 85.7489446, 27.676755 ], [ 85.7494567, 27.6767032 ], [ 85.749794, 27.6765393 ], [ 85.750125, 27.6761858 ], [ 85.7501463, 27.6755341 ], [ 85.7502157, 27.6750339 ], [ 85.7499864, 27.6745806 ], [ 85.7500194, 27.6742741 ], [ 85.7502231, 27.6739624 ], [ 85.7505979, 27.6736454 ], [ 85.7508913, 27.673445 ], [ 85.7512725, 27.6733198 ], [ 85.7517884, 27.6733832 ], [ 85.7520942, 27.6735664 ], [ 85.7521846, 27.6737183 ], [ 85.7522075, 27.6744066 ], [ 85.7525183, 27.6747433 ], [ 85.752955, 27.6749999 ], [ 85.7542382, 27.6749663 ], [ 85.7569145, 27.6743181 ], [ 85.7570844, 27.6742767 ], [ 85.7575916, 27.6740715 ], [ 85.7589479, 27.6736505 ], [ 85.7596161, 27.6731354 ], [ 85.7598209, 27.672862 ], [ 85.7598562, 27.6726299 ], [ 85.7597128, 27.6721752 ], [ 85.7598737, 27.671863 ], [ 85.7601693, 27.6717416 ], [ 85.7614604, 27.6719359 ], [ 85.7620607, 27.6719593 ], [ 85.7627942, 27.6721305 ], [ 85.7641482, 27.671635 ], [ 85.7646626, 27.6716577 ], [ 85.7651823, 27.671836 ], [ 85.7655244, 27.6718278 ], [ 85.7665476, 27.6716835 ], [ 85.7670533, 27.6714398 ], [ 85.7673023, 27.6712052 ], [ 85.7674647, 27.6709314 ], [ 85.7675753, 27.6703932 ], [ 85.7680167, 27.6694992 ], [ 85.7681299, 27.6690355 ], [ 85.7685323, 27.6682585 ], [ 85.768862, 27.6678667 ], [ 85.769457, 27.6677366 ], [ 85.769798, 27.6676877 ], [ 85.7703151, 27.6677893 ], [ 85.7709997, 27.6677706 ], [ 85.7718502, 27.6675954 ], [ 85.7728744, 27.6674917 ], [ 85.7732204, 27.6675963 ], [ 85.7739175, 27.6679611 ], [ 85.7746071, 27.6680958 ], [ 85.7754614, 27.6680334 ], [ 85.7761522, 27.6682065 ], [ 85.776941, 27.6687594 ], [ 85.7772885, 27.6689046 ], [ 85.7778055, 27.6690061 ], [ 85.7788248, 27.6687467 ], [ 85.7798112, 27.6687982 ], [ 85.7806162, 27.6685459 ], [ 85.7819599, 27.6677433 ], [ 85.7826381, 27.6675327 ], [ 85.7835313, 27.6673555 ], [ 85.7846297, 27.6669049 ], [ 85.7852567, 27.6664277 ], [ 85.7864389, 27.6658966 ], [ 85.7871182, 27.6657266 ], [ 85.78986, 27.6657663 ], [ 85.7905432, 27.6657091 ], [ 85.7913828, 27.6651886 ], [ 85.7918521, 27.6651385 ], [ 85.7920232, 27.6651332 ], [ 85.7935512, 27.6660489 ], [ 85.7940289, 27.6662674 ], [ 85.794546, 27.6663667 ], [ 85.795915, 27.6663312 ], [ 85.7976384, 27.6666665 ], [ 85.7984892, 27.6664911 ], [ 85.7988314, 27.6664806 ], [ 85.7992189, 27.6665471 ], [ 85.8000782, 27.666638 ], [ 85.8007613, 27.666583 ], [ 85.8017393, 27.6663636 ], [ 85.8024163, 27.6661145 ], [ 85.8028265, 27.6662241 ], [ 85.8034531, 27.6663942 ], [ 85.8041485, 27.6667206 ], [ 85.804839, 27.6668935 ], [ 85.8062271, 27.6674288 ], [ 85.8065731, 27.6675356 ], [ 85.8070863, 27.667522 ], [ 85.8075671, 27.6678149 ], [ 85.8079249, 27.6682646 ], [ 85.8085352, 27.6685925 ], [ 85.8092272, 27.6688037 ], [ 85.8097056, 27.6690199 ], [ 85.8114256, 27.6692422 ], [ 85.812451, 27.6691766 ], [ 85.8134068, 27.6683072 ], [ 85.814565, 27.6670876 ], [ 85.815391, 27.6661448 ], [ 85.8158064, 27.6657491 ], [ 85.8165226, 27.6653852 ], [ 85.8170651, 27.6649499 ], [ 85.8182564, 27.6633832 ], [ 85.8185018, 27.6630311 ], [ 85.8191494, 27.6618635 ], [ 85.8196456, 27.661315 ], [ 85.8198078, 27.6610411 ], [ 85.8198787, 27.6605792 ], [ 85.8201752, 27.6591537 ], [ 85.8210304, 27.6577894 ], [ 85.8212573, 27.6568618 ], [ 85.8217361, 27.6557762 ], [ 85.8216393, 27.6554348 ], [ 85.8214582, 27.6551332 ], [ 85.8209304, 27.6546865 ], [ 85.8200222, 27.6544058 ], [ 85.8197606, 27.6542592 ], [ 85.8191431, 27.6537012 ], [ 85.8187712, 27.6527911 ], [ 85.8179682, 27.6517781 ], [ 85.8170104, 27.6499651 ], [ 85.8157548, 27.648197 ], [ 85.8155641, 27.6475885 ], [ 85.8156592, 27.6465516 ], [ 85.816309, 27.6454607 ], [ 85.8172532, 27.6442077 ], [ 85.8179643, 27.6436903 ], [ 85.8186314, 27.6431365 ], [ 85.8188453, 27.6431293 ], [ 85.8198792, 27.6433321 ], [ 85.8214054, 27.6428691 ], [ 85.8217475, 27.6428585 ], [ 85.8225981, 27.642683 ], [ 85.8229363, 27.6425595 ], [ 85.8235645, 27.6421204 ], [ 85.8243168, 27.6415628 ], [ 85.8257755, 27.6403343 ], [ 85.8262214, 27.6395553 ], [ 85.8275795, 27.6378703 ], [ 85.8289611, 27.6369118 ], [ 85.8304358, 27.6361821 ], [ 85.8311896, 27.6356628 ], [ 85.8322659, 27.6345213 ], [ 85.8325033, 27.6343598 ], [ 85.8328522, 27.6341224 ], [ 85.8337147, 27.6329858 ], [ 85.8353507, 27.6319438 ], [ 85.836102, 27.63135 ], [ 85.8368887, 27.6305219 ], [ 85.837216, 27.6300531 ], [ 85.8380516, 27.6294171 ], [ 85.838506, 27.6289066 ], [ 85.8391815, 27.6286189 ], [ 85.8403592, 27.6279723 ], [ 85.841653, 27.6269408 ], [ 85.8423371, 27.6265616 ], [ 85.8431389, 27.6265539 ], [ 85.8438233, 27.6265348 ], [ 85.8448547, 27.6266607 ], [ 85.8462334, 27.6269271 ], [ 85.8467479, 27.6269517 ], [ 85.8472663, 27.6270914 ], [ 85.8486387, 27.6271682 ], [ 85.8500173, 27.6274368 ], [ 85.8505883, 27.6278792 ], [ 85.8517656, 27.6285364 ], [ 85.8525177, 27.6292826 ], [ 85.8533102, 27.6299502 ], [ 85.8538797, 27.6303565 ], [ 85.8546711, 27.6309857 ], [ 85.8550672, 27.6313206 ], [ 85.8556079, 27.6321485 ], [ 85.8559601, 27.6324447 ], [ 85.8564394, 27.6326991 ], [ 85.8569991, 27.6327984 ], [ 85.8576812, 27.6327025 ], [ 85.8581856, 27.6324202 ], [ 85.8583932, 27.6322233 ], [ 85.8584725, 27.63203 ], [ 85.8587872, 27.6311775 ], [ 85.8596191, 27.6304264 ], [ 85.8601236, 27.630144 ], [ 85.860637, 27.6301302 ], [ 85.8613301, 27.6303772 ], [ 85.8616721, 27.6303688 ], [ 85.8623491, 27.6301194 ], [ 85.8626849, 27.6299191 ], [ 85.8629343, 27.629682 ], [ 85.8630952, 27.6293697 ], [ 85.863469, 27.6290164 ], [ 85.8640189, 27.6288088 ], [ 85.8646846, 27.6282141 ], [ 85.8650242, 27.6281289 ], [ 85.8652404, 27.6281984 ], [ 85.8655561, 27.6286883 ], [ 85.8658667, 27.6290247 ], [ 85.8665146, 27.6291992 ], [ 85.8668555, 27.6291501 ], [ 85.8670618, 27.6289149 ], [ 85.8675439, 27.6279442 ], [ 85.868196, 27.6256258 ], [ 85.8684388, 27.6251969 ], [ 85.8687294, 27.6249195 ], [ 85.8701198, 27.6242293 ], [ 85.8704544, 27.6239906 ], [ 85.8707819, 27.6238013 ], [ 85.8711727, 27.6235753 ], [ 85.8715703, 27.6221572 ], [ 85.8717267, 27.6210027 ], [ 85.8718066, 27.6201216 ], [ 85.8726564, 27.6200579 ], [ 85.8737672, 27.6199571 ], [ 85.8745274, 27.620381 ], [ 85.8750274, 27.6203436 ], [ 85.8752807, 27.6201884 ], [ 85.8755691, 27.6198957 ], [ 85.8753829, 27.6190766 ], [ 85.8753906, 27.6186893 ], [ 85.8753224, 27.6179415 ], [ 85.8748249, 27.6170161 ], [ 85.8749271, 27.6167738 ], [ 85.8751738, 27.6164599 ], [ 85.8752997, 27.6163797 ], [ 85.8757248, 27.6162929 ], [ 85.8765801, 27.6162683 ], [ 85.8772696, 27.6164025 ], [ 85.878487, 27.6169808 ], [ 85.8787312, 27.6170021 ], [ 85.8788305, 27.6170107 ], [ 85.879097, 27.6170863 ], [ 85.8795124, 27.6169147 ], [ 85.8800192, 27.6167089 ], [ 85.8801439, 27.6165904 ], [ 85.8803842, 27.6160847 ], [ 85.8805301, 27.6153143 ], [ 85.8808521, 27.614692 ], [ 85.8810653, 27.6144824 ], [ 85.8816972, 27.6139373 ], [ 85.8821939, 27.6131936 ], [ 85.8824252, 27.6122527 ], [ 85.8823824, 27.6117898 ], [ 85.8824089, 27.6111093 ], [ 85.8824625, 27.6103112 ], [ 85.8827366, 27.6102921 ], [ 85.8836922, 27.6109061 ], [ 85.884498, 27.6106973 ], [ 85.884934, 27.6108797 ], [ 85.8855578, 27.6108411 ], [ 85.8859665, 27.611038 ], [ 85.8858231, 27.61149 ], [ 85.8852455, 27.6120977 ], [ 85.8845828, 27.6126934 ], [ 85.88428, 27.6142495 ], [ 85.885081, 27.6154909 ], [ 85.885555, 27.6165466 ], [ 85.8858787, 27.6172006 ], [ 85.8863902, 27.6179899 ], [ 85.8867451, 27.6179171 ], [ 85.8872228, 27.6179984 ], [ 85.8874838, 27.6183031 ], [ 85.8876147, 27.6183764 ], [ 85.8881943, 27.619051 ], [ 85.8884718, 27.6196556 ], [ 85.8889141, 27.6200653 ], [ 85.8891862, 27.6205186 ], [ 85.889474, 27.6214301 ], [ 85.8900135, 27.6221812 ], [ 85.890173, 27.6230984 ], [ 85.890531, 27.623548 ], [ 85.8909949, 27.6246098 ], [ 85.8916525, 27.6250505 ], [ 85.8919575, 27.625195 ], [ 85.8923128, 27.6255701 ], [ 85.8931896, 27.6261592 ], [ 85.8940766, 27.6270551 ], [ 85.894515, 27.6273496 ], [ 85.8951676, 27.6276368 ], [ 85.8958162, 27.6278112 ], [ 85.896602, 27.6282506 ], [ 85.8971224, 27.6284262 ], [ 85.8975192, 27.628761 ], [ 85.8978938, 27.6297093 ], [ 85.8981651, 27.6301243 ], [ 85.898602, 27.6303804 ], [ 85.899584, 27.6302754 ], [ 85.9006193, 27.6304777 ], [ 85.900793, 27.630549 ], [ 85.9018087, 27.6314414 ], [ 85.9037531, 27.6319238 ], [ 85.9039763, 27.632185 ], [ 85.9043512, 27.6331332 ], [ 85.9047093, 27.633585 ], [ 85.9052345, 27.633914 ], [ 85.9063969, 27.6340743 ], [ 85.9069651, 27.6344037 ], [ 85.9080325, 27.6354033 ], [ 85.9089007, 27.6358831 ], [ 85.9097852, 27.6367022 ], [ 85.9102192, 27.6371634 ], [ 85.9103811, 27.6373078 ], [ 85.9105041, 27.6376802 ], [ 85.9101874, 27.6384538 ], [ 85.9100047, 27.6393796 ], [ 85.9095753, 27.6406193 ], [ 85.9093923, 27.6415451 ], [ 85.9094171, 27.6422718 ], [ 85.9096197, 27.6429434 ], [ 85.9096584, 27.64307 ], [ 85.9099319, 27.6435618 ], [ 85.9101538, 27.6437869 ], [ 85.9109375, 27.6441472 ], [ 85.9117172, 27.6443947 ], [ 85.9125073, 27.6449469 ], [ 85.9140785, 27.6457849 ], [ 85.9144752, 27.6461197 ], [ 85.9149337, 27.6470279 ], [ 85.9150298, 27.647331 ], [ 85.9151037, 27.6482498 ], [ 85.9148783, 27.6491752 ], [ 85.9148885, 27.6494821 ], [ 85.9147435, 27.6502526 ], [ 85.9148472, 27.6533193 ], [ 85.9149005, 27.6536243 ], [ 85.9153645, 27.6546838 ], [ 85.9154757, 27.6554472 ], [ 85.9157053, 27.6559025 ], [ 85.9157676, 27.6577416 ], [ 85.9158634, 27.6580447 ], [ 85.9159103, 27.6594235 ], [ 85.9161019, 27.6600319 ], [ 85.9163742, 27.6604852 ], [ 85.9167291, 27.660858 ], [ 85.9171828, 27.6616128 ], [ 85.917551, 27.6623692 ], [ 85.9176519, 27.6628279 ], [ 85.91788, 27.6632426 ], [ 85.9181081, 27.6636572 ], [ 85.9183698, 27.6638036 ], [ 85.9187545, 27.6637931 ], [ 85.9194008, 27.663929 ], [ 85.9213236, 27.6638379 ], [ 85.9228549, 27.6635633 ], [ 85.9246533, 27.6635908 ], [ 85.9250418, 27.6636954 ], [ 85.9259864, 27.6637839 ], [ 85.9267857, 27.6646429 ], [ 85.9271818, 27.6649776 ], [ 85.9275731, 27.6651588 ], [ 85.9284749, 27.6652493 ], [ 85.929751, 27.66502 ], [ 85.9303923, 27.6650024 ], [ 85.9307811, 27.6651069 ], [ 85.931443, 27.6657031 ], [ 85.932259, 27.6670608 ], [ 85.932785, 27.667428 ], [ 85.9335649, 27.6677138 ], [ 85.9342205, 27.6681182 ], [ 85.9351287, 27.6683981 ], [ 85.9360302, 27.6684885 ], [ 85.9368089, 27.6687359 ], [ 85.9375824, 27.6688298 ], [ 85.9390112, 27.6693258 ], [ 85.9391978, 27.6697807 ], [ 85.939133, 27.6703961 ], [ 85.939191, 27.6708545 ], [ 85.9390833, 27.6714719 ], [ 85.9390664, 27.6722388 ], [ 85.9388356, 27.6730108 ], [ 85.9384856, 27.6740572 ], [ 85.9384457, 27.6744833 ], [ 85.937963, 27.6754418 ], [ 85.9381648, 27.676357 ], [ 85.9381803, 27.6768174 ], [ 85.9381154, 27.6774328 ], [ 85.9374284, 27.678639 ], [ 85.9364534, 27.6802017 ], [ 85.9362123, 27.6806669 ], [ 85.9357651, 27.6813696 ], [ 85.9356044, 27.6816819 ], [ 85.9355291, 27.6819904 ], [ 85.9355225, 27.6830642 ], [ 85.9352592, 27.6841451 ], [ 85.9350985, 27.6844575 ], [ 85.9347496, 27.6855399 ], [ 85.9342348, 27.6867813 ], [ 85.9341359, 27.6876672 ], [ 85.9343653, 27.6881202 ], [ 85.934855, 27.6886812 ], [ 85.9360444, 27.689683 ], [ 85.9368488, 27.6906976 ], [ 85.9372906, 27.6911071 ], [ 85.9378115, 27.6913209 ], [ 85.9382066, 27.6916172 ], [ 85.9383504, 27.692074 ], [ 85.9387182, 27.6928303 ], [ 85.9388293, 27.6935937 ], [ 85.9387903, 27.6949764 ], [ 85.9386398, 27.6955934 ], [ 85.9386605, 27.6962072 ], [ 85.9387665, 27.6968171 ], [ 85.9390966, 27.6977288 ], [ 85.939107, 27.6980357 ], [ 85.9389993, 27.6986508 ], [ 85.9387633, 27.6992717 ], [ 85.9375451, 27.6999572 ], [ 85.9373415, 27.7002692 ], [ 85.9370679, 27.7010455 ], [ 85.9366371, 27.7022446 ], [ 85.9364414, 27.7027868 ], [ 85.9363932, 27.7031045 ], [ 85.9363013, 27.7037107 ], [ 85.9363216, 27.7043245 ], [ 85.9364175, 27.7046298 ], [ 85.936315, 27.7053983 ], [ 85.9358988, 27.7066461 ], [ 85.9358922, 27.70772 ], [ 85.9361317, 27.7084821 ], [ 85.9361951, 27.709094 ], [ 85.9363867, 27.7097001 ], [ 85.9366212, 27.7103087 ], [ 85.9372067, 27.7111728 ], [ 85.9379972, 27.7117654 ], [ 85.9385207, 27.7120582 ], [ 85.9394305, 27.7123765 ], [ 85.9400772, 27.7125123 ], [ 85.9408586, 27.7128364 ], [ 85.9421691, 27.7136044 ], [ 85.9430929, 27.7143447 ], [ 85.9434416, 27.7145278 ], [ 85.9445886, 27.7155315 ], [ 85.9450693, 27.7158239 ], [ 85.945598, 27.7162702 ], [ 85.9459987, 27.7167176 ], [ 85.9465894, 27.7177374 ], [ 85.9471709, 27.7184885 ], [ 85.9473461, 27.7185981 ], [ 85.9475273, 27.7188996 ], [ 85.9484637, 27.7200212 ], [ 85.9491257, 27.7206173 ], [ 85.9496991, 27.721189 ], [ 85.9498782, 27.7213607 ], [ 85.9504093, 27.7218836 ], [ 85.9508033, 27.7221393 ], [ 85.9512789, 27.7222805 ], [ 85.9517181, 27.7226132 ], [ 85.9521918, 27.7239795 ], [ 85.9527358, 27.7248837 ], [ 85.9527887, 27.7251887 ], [ 85.9527135, 27.7254972 ], [ 85.9523164, 27.7264282 ], [ 85.952342, 27.7271932 ], [ 85.9531086, 27.7296242 ], [ 85.9544932, 27.7313493 ], [ 85.9554689, 27.7323561 ], [ 85.9557306, 27.7325024 ], [ 85.9570276, 27.7328867 ], [ 85.9573336, 27.7330695 ], [ 85.9585243, 27.7341072 ], [ 85.9590931, 27.7344747 ], [ 85.960061, 27.7352536 ], [ 85.9601518, 27.7354032 ], [ 85.9605911, 27.7357358 ], [ 85.9608151, 27.7360353 ], [ 85.9610973, 27.7367955 ], [ 85.9610478, 27.737869 ], [ 85.9612548, 27.7389354 ], [ 85.9612652, 27.7392423 ], [ 85.9609693, 27.7406298 ], [ 85.9609846, 27.7410901 ], [ 85.9609275, 27.7419357 ], [ 85.9608975, 27.742319 ], [ 85.9630815, 27.7423331 ], [ 85.9644618, 27.742639 ], [ 85.9652316, 27.7426177 ], [ 85.9663774, 27.7423149 ], [ 85.9671359, 27.7419483 ], [ 85.9686577, 27.7413686 ], [ 85.9696753, 27.7410716 ], [ 85.9713187, 27.7402965 ], [ 85.9724507, 27.739574 ], [ 85.9736288, 27.7389646 ], [ 85.974382, 27.7384467 ], [ 85.9753347, 27.7374995 ], [ 85.9767348, 27.7358494 ], [ 85.977108, 27.7354935 ], [ 85.9774944, 27.7355211 ], [ 85.9785259, 27.7356438 ], [ 85.979174, 27.7358178 ], [ 85.9796962, 27.7360698 ], [ 85.9803443, 27.7362438 ], [ 85.9808665, 27.7364958 ], [ 85.9825553, 27.737061 ], [ 85.9833811, 27.7374212 ], [ 85.9852121, 27.7384025 ], [ 85.9863788, 27.7387156 ], [ 85.9866778, 27.7388044 ], [ 85.987159, 27.7389989 ], [ 85.9883411, 27.73977 ], [ 85.9895179, 27.7403878 ], [ 85.9905547, 27.7406638 ], [ 85.9913297, 27.7407958 ], [ 85.991847, 27.7408966 ], [ 85.9937937, 27.7414906 ], [ 85.9943199, 27.7418599 ], [ 85.995103, 27.7422198 ], [ 85.9957508, 27.7423937 ], [ 85.9967762, 27.7423244 ], [ 85.9975206, 27.7419959 ], [ 85.9977289, 27.7427509 ], [ 85.9980216, 27.7429787 ], [ 85.9982746, 27.7431046 ], [ 85.999337, 27.7434191 ], [ 86.0004416, 27.7434609 ], [ 86.0026945, 27.744619 ], [ 86.0027438, 27.7446497 ], [ 86.0028103, 27.7446914 ], [ 86.0029346, 27.7448077 ], [ 86.0034163, 27.7450909 ], [ 86.0044751, 27.7453603 ], [ 86.0050112, 27.7453822 ], [ 86.0055987, 27.7452307 ], [ 86.0062919, 27.7451545 ], [ 86.0067745, 27.7451016 ], [ 86.0070434, 27.7450561 ], [ 86.0082043, 27.7448591 ], [ 86.0096934, 27.7447548 ], [ 86.0104216, 27.7446404 ], [ 86.0110254, 27.7442522 ], [ 86.0112218, 27.7442017 ], [ 86.0113896, 27.7442863 ], [ 86.0121314, 27.7448444 ], [ 86.0127993, 27.744804 ], [ 86.0139879, 27.7443861 ], [ 86.0143808, 27.7443257 ], [ 86.0154628, 27.7438168 ], [ 86.0158774, 27.743425 ], [ 86.0161442, 27.7433623 ], [ 86.0163621, 27.7433111 ], [ 86.0165079, 27.7433079 ], [ 86.0165899, 27.743306 ], [ 86.0172831, 27.7432906 ], [ 86.018426, 27.7430821 ], [ 86.019885, 27.7424382 ], [ 86.0216125, 27.741469 ], [ 86.021827, 27.7413487 ], [ 86.0222356, 27.7413042 ], [ 86.0225973, 27.7411601 ], [ 86.0229935, 27.7408358 ], [ 86.0233057, 27.7407636 ], [ 86.0241246, 27.7408799 ], [ 86.0253272, 27.7411298 ], [ 86.0256703, 27.7411412 ], [ 86.0262158, 27.740924 ], [ 86.0265655, 27.7406647 ], [ 86.0275149, 27.73969 ], [ 86.0276026, 27.7395981 ], [ 86.0277731, 27.739548 ], [ 86.0279033, 27.7396025 ], [ 86.0279199, 27.7396319 ], [ 86.027911, 27.7396635 ], [ 86.0278786, 27.7397828 ], [ 86.0277604, 27.7401384 ], [ 86.0278532, 27.7406061 ], [ 86.0280592, 27.7408196 ], [ 86.0284575, 27.7409397 ], [ 86.0287294, 27.7410905 ], [ 86.0297285, 27.7421579 ], [ 86.030155, 27.7424293 ], [ 86.0301696, 27.7424543 ], [ 86.0304416, 27.7429142 ], [ 86.0305008, 27.7436839 ], [ 86.0306065, 27.7441652 ], [ 86.0305649, 27.744386 ], [ 86.0306791, 27.7450185 ], [ 86.0308756, 27.7453064 ], [ 86.0312304, 27.7455796 ], [ 86.031394, 27.7458357 ], [ 86.0314861, 27.7464161 ], [ 86.0315136, 27.7464592 ], [ 86.0317112, 27.7467696 ], [ 86.0317674, 27.7471896 ], [ 86.0315332, 27.7481536 ], [ 86.0316339, 27.7488853 ], [ 86.0323157, 27.7503881 ], [ 86.0323182, 27.7503926 ], [ 86.0330649, 27.7538541 ], [ 86.033515, 27.7547168 ], [ 86.0339538, 27.7567526 ], [ 86.0336487, 27.7572423 ], [ 86.030892, 27.7598445 ], [ 86.0308256, 27.7599072 ], [ 86.0293445, 27.7615122 ], [ 86.0281921, 27.7630108 ], [ 86.0278432, 27.7634644 ], [ 86.0269171, 27.7641866 ], [ 86.0248333, 27.7652909 ], [ 86.0236455, 27.7660653 ], [ 86.0231455, 27.7663912 ], [ 86.0226765, 27.7670907 ], [ 86.0215964, 27.7687017 ], [ 86.0211698, 27.7696778 ], [ 86.0210031, 27.7705926 ], [ 86.0200376, 27.7718762 ], [ 86.0198814, 27.7720849 ], [ 86.0196504, 27.7725909 ], [ 86.0209281, 27.7748289 ], [ 86.0219186, 27.775709 ], [ 86.0230823, 27.7785012 ], [ 86.0237249, 27.7805046 ], [ 86.0244334, 27.782258 ], [ 86.0254588, 27.7839393 ], [ 86.0255581, 27.7841024 ], [ 86.0259603, 27.7851611 ], [ 86.025987, 27.7857162 ], [ 86.0256417, 27.7864267 ], [ 86.0223599, 27.7898643 ], [ 86.0216793, 27.7911883 ], [ 86.0214367, 27.7924973 ], [ 86.0214641, 27.7936504 ], [ 86.0217897, 27.7965675 ], [ 86.0222824, 27.7981998 ], [ 86.0225414, 27.7998801 ], [ 86.0224287, 27.8008833 ], [ 86.0210403, 27.8026896 ], [ 86.0204771, 27.8048762 ], [ 86.0201806, 27.8074527 ], [ 86.0203235, 27.8088281 ], [ 86.0201863, 27.8092553 ], [ 86.0196294, 27.8096868 ], [ 86.0182084, 27.8112469 ], [ 86.0158224, 27.8129783 ], [ 86.0146413, 27.8142017 ], [ 86.0138705, 27.8153287 ], [ 86.0137749, 27.8160883 ], [ 86.0135308, 27.8167769 ], [ 86.0126917, 27.8178403 ], [ 86.0107848, 27.8183726 ], [ 86.0107574, 27.8183924 ], [ 86.0096009, 27.8192282 ], [ 86.0086211, 27.8205206 ], [ 86.0074587, 27.8234406 ], [ 86.0065426, 27.8250854 ], [ 86.0064746, 27.8251729 ], [ 86.0048925, 27.8272122 ], [ 86.0043691, 27.827698 ], [ 86.0036093, 27.828719 ], [ 86.003192, 27.8290116 ], [ 86.0025421, 27.829561 ], [ 86.0023737, 27.8303209 ], [ 86.0031249, 27.831707 ], [ 86.0031345, 27.8317251 ], [ 86.0038726, 27.8326035 ], [ 86.0060418, 27.8337156 ], [ 86.0066653, 27.8342864 ], [ 86.0071413, 27.8352824 ], [ 86.0077404, 27.8368321 ], [ 86.0092573, 27.8386929 ], [ 86.0103831, 27.8396485 ], [ 86.0106159, 27.8397224 ], [ 86.0121729, 27.8400065 ], [ 86.0134177, 27.8405727 ], [ 86.0142626, 27.8409577 ], [ 86.0147791, 27.8410945 ], [ 86.015124, 27.8414422 ], [ 86.0181101, 27.8433946 ], [ 86.0203694, 27.8440536 ], [ 86.0235725, 27.8453532 ], [ 86.0243699, 27.8460831 ], [ 86.0245892, 27.8461117 ], [ 86.0247975, 27.8462666 ], [ 86.0252538, 27.8470436 ], [ 86.025221, 27.8492859 ], [ 86.0253619, 27.8504893 ], [ 86.0257106, 27.8514145 ], [ 86.0273124, 27.8541262 ], [ 86.0276957, 27.8549456 ], [ 86.0277293, 27.8562995 ], [ 86.0285424, 27.8594072 ], [ 86.0291189, 27.8608394 ], [ 86.0303183, 27.8629053 ], [ 86.0324115, 27.8647767 ], [ 86.0339337, 27.8658071 ], [ 86.0357707, 27.8662012 ], [ 86.0364217, 27.8663208 ], [ 86.0368336, 27.8663914 ], [ 86.0373461, 27.866431 ], [ 86.0382147, 27.8662724 ], [ 86.038762, 27.8663597 ], [ 86.0395856, 27.8670941 ], [ 86.0399044, 27.8672881 ], [ 86.0405941, 27.8673448 ], [ 86.0409727, 27.8673768 ], [ 86.0418008, 27.8676036 ], [ 86.0423467, 27.8679481 ], [ 86.0427836, 27.8687881 ], [ 86.0431512, 27.8703315 ], [ 86.0437973, 27.8718814 ], [ 86.0438486, 27.8721863 ], [ 86.0439158, 27.8725861 ], [ 86.0440859, 27.8735979 ], [ 86.0441141, 27.8747983 ], [ 86.0452435, 27.877078 ], [ 86.046902, 27.8787454 ], [ 86.0480203, 27.880603 ], [ 86.0484206, 27.8815353 ], [ 86.048462, 27.8819191 ], [ 86.0480718, 27.8837573 ], [ 86.0474152, 27.8857854 ], [ 86.0476539, 27.8862451 ], [ 86.0496135, 27.888386 ], [ 86.0517466, 27.889734 ], [ 86.0525099, 27.8905108 ], [ 86.0536646, 27.8926191 ], [ 86.0544772, 27.8936309 ], [ 86.0561641, 27.895436 ], [ 86.0578417, 27.896237 ], [ 86.0588859, 27.8969007 ], [ 86.0605724, 27.8975397 ], [ 86.064818, 27.899812 ], [ 86.0622739, 27.9011201 ], [ 86.0594854, 27.9031685 ], [ 86.059275, 27.903323 ], [ 86.056873, 27.903692 ], [ 86.055025, 27.904801 ], [ 86.050222, 27.90517 ], [ 86.048005, 27.907018 ], [ 86.045788, 27.907018 ], [ 86.0448719, 27.9067429 ], [ 86.04394, 27.906463 ], [ 86.040615, 27.904801 ], [ 86.037658, 27.904431 ], [ 86.034148, 27.90517 ], [ 86.0337152, 27.9053624 ], [ 86.030823, 27.906648 ], [ 86.0282455, 27.90755 ], [ 86.028011, 27.907632 ], [ 86.025347, 27.908035 ], [ 86.022924, 27.907874 ], [ 86.021229, 27.908358 ], [ 86.01913, 27.910054 ], [ 86.01695, 27.911911 ], [ 86.0159, 27.913042 ], [ 86.013962, 27.914576 ], [ 86.013639, 27.914737 ], [ 86.010409, 27.913607 ], [ 86.008713, 27.913284 ], [ 86.007422, 27.912961 ], [ 86.00508, 27.912073 ], [ 86.002496, 27.911669 ], [ 86.000154, 27.911588 ], [ 85.999186, 27.912557 ], [ 85.998055, 27.91393 ], [ 85.996037, 27.914495 ], [ 85.9948955, 27.9150496 ], [ 85.993211, 27.915868 ], [ 85.991919, 27.916352 ], [ 85.9903797, 27.9164755 ], [ 85.9899, 27.916514 ], [ 85.9895837, 27.9167248 ], [ 85.988689, 27.917321 ], [ 85.987881, 27.918451 ], [ 85.98449, 27.919178 ], [ 85.982633, 27.920551 ], [ 85.980938, 27.922408 ], [ 85.979565, 27.9237 ], [ 85.97795, 27.924588 ], [ 85.976254, 27.925315 ], [ 85.97472, 27.92588 ], [ 85.973751, 27.926687 ], [ 85.97254, 27.928464 ], [ 85.971006, 27.930079 ], [ 85.968906, 27.931613 ], [ 85.967211, 27.932501 ], [ 85.965192, 27.933308 ], [ 85.962528, 27.934035 ], [ 85.960428, 27.935085 ], [ 85.958733, 27.936296 ], [ 85.95728, 27.9367 ], [ 85.955422, 27.937749 ], [ 85.953888, 27.93888 ], [ 85.952516, 27.939203 ], [ 85.950739, 27.939687 ], [ 85.949609, 27.940252 ], [ 85.9482341, 27.9418714 ], [ 85.9484375, 27.9428289 ], [ 85.9491074, 27.9435892 ], [ 85.9511428, 27.9453588 ], [ 85.9526554, 27.9473107 ], [ 85.9530244, 27.9482482 ], [ 85.9530505, 27.9491436 ], [ 85.9532947, 27.9505995 ], [ 85.954083, 27.9519327 ], [ 85.9548489, 27.9532055 ], [ 85.9551878, 27.9543897 ], [ 85.9555084, 27.9553821 ], [ 85.9565015, 27.9560308 ], [ 85.9572709, 27.9566394 ], [ 85.9572934, 27.9574562 ], [ 85.9573798, 27.9577716 ], [ 85.9581582, 27.9589316 ], [ 85.9575119, 27.9606151 ], [ 85.9579669, 27.9612829 ], [ 85.9583779, 27.9624705 ], [ 85.9584992, 27.9641435 ], [ 85.9590782, 27.9663719 ], [ 85.9598178, 27.9686831 ], [ 85.960809, 27.969841 ], [ 85.962762, 27.971485 ], [ 85.9637022, 27.9724727 ], [ 85.9641543, 27.9735408 ], [ 85.9642079, 27.9736071 ], [ 85.9653002, 27.9758019 ], [ 85.9678475, 27.9775306 ], [ 85.9689482, 27.9787738 ], [ 85.9696811, 27.9799658 ], [ 85.9715065, 27.9822093 ], [ 85.9734453, 27.9834613 ], [ 85.9759125, 27.985615 ], [ 85.9777276, 27.9879101 ], [ 85.9783803, 27.9902166 ], [ 85.9780079, 27.990913 ], [ 85.9782847, 27.9915117 ], [ 85.9781279, 27.9920105 ], [ 85.9767773, 27.9934811 ], [ 85.9763959, 27.9945134 ], [ 85.9768265, 27.9966307 ], [ 85.9745097, 27.9986142 ], [ 85.9736692, 28.0009339 ], [ 85.970305, 27.999884 ], [ 85.969425, 27.999443 ], [ 85.968249, 27.999443 ], [ 85.966928, 28.000031 ], [ 85.962816, 28.002821 ], [ 85.961641, 28.005318 ], [ 85.958116, 28.008549 ], [ 85.953416, 28.013542 ], [ 85.952389, 28.014276 ], [ 85.951067, 28.014423 ], [ 85.948864, 28.016773 ], [ 85.945193, 28.019857 ], [ 85.940346, 28.023088 ], [ 85.937409, 28.023969 ], [ 85.936968, 28.023675 ], [ 85.936234, 28.022941 ], [ 85.935206, 28.022941 ], [ 85.93359, 28.02485 ], [ 85.931828, 28.027934 ], [ 85.931388, 28.029109 ], [ 85.928304, 28.030137 ], [ 85.925807, 28.033368 ], [ 85.920667, 28.0440449 ], [ 85.9170968, 28.0470459 ], [ 85.9153744, 28.0510519 ], [ 85.9120328, 28.0513171 ], [ 85.9107279, 28.0508472 ], [ 85.9089379, 28.0493368 ], [ 85.90833, 28.05011 ], [ 85.9061305, 28.0515921 ], [ 85.903043, 28.052313 ], [ 85.9012359, 28.0531038 ], [ 85.900694, 28.053341 ], [ 85.899812, 28.054516 ], [ 85.899812, 28.058922 ], [ 85.900253, 28.060097 ], [ 85.900106, 28.0623 ], [ 85.898491, 28.064943 ], [ 85.896876, 28.066705 ], [ 85.896435, 28.067586 ], [ 85.896435, 28.07302 ], [ 85.896729, 28.074342 ], [ 85.8959587, 28.0756781 ], [ 85.900106, 28.078014 ], [ 85.900253, 28.086531 ], [ 85.900841, 28.088294 ], [ 85.90275, 28.09079 ], [ 85.899959, 28.09549 ], [ 85.899078, 28.09828 ], [ 85.899519, 28.099896 ], [ 85.8994674, 28.1040603 ], [ 85.897169, 28.111057 ], [ 85.893498, 28.11326 ], [ 85.891882, 28.113994 ], [ 85.89056, 28.114876 ], [ 85.889679, 28.115169 ], [ 85.8896523, 28.1154359 ], [ 85.889532, 28.116638 ], [ 85.887036, 28.116785 ], [ 85.883805, 28.116785 ], [ 85.878224, 28.116638 ], [ 85.870293, 28.123687 ], [ 85.869559, 28.129855 ], [ 85.869853, 28.132058 ], [ 85.869559, 28.133674 ], [ 85.870147, 28.139107 ], [ 85.871909, 28.143513 ], [ 85.871469, 28.146597 ], [ 85.870587, 28.147332 ], [ 85.866916, 28.148066 ], [ 85.8653, 28.149241 ], [ 85.863538, 28.149681 ], [ 85.861629, 28.151737 ], [ 85.860307, 28.155262 ], [ 85.859279, 28.156143 ], [ 85.859426, 28.157612 ], [ 85.85972, 28.158787 ], [ 85.858839, 28.16143 ], [ 85.858692, 28.162018 ], [ 85.856929, 28.162165 ], [ 85.856195, 28.162752 ], [ 85.855167, 28.16378 ], [ 85.853845, 28.164221 ], [ 85.852524, 28.165836 ], [ 85.851789, 28.166423 ], [ 85.851202, 28.167011 ], [ 85.850321, 28.168773 ], [ 85.849586, 28.171564 ], [ 85.849586, 28.174794 ], [ 85.849733, 28.178907 ], [ 85.849439, 28.183312 ], [ 85.84753, 28.183312 ], [ 85.844152, 28.182872 ], [ 85.841362, 28.183459 ], [ 85.839747, 28.184047 ], [ 85.838865, 28.1839 ], [ 85.837984, 28.183606 ], [ 85.83681, 28.1839 ], [ 85.835634, 28.18434 ], [ 85.83446, 28.18434 ], [ 85.833725, 28.184487 ], [ 85.832257, 28.183753 ], [ 85.830788, 28.183606 ], [ 85.828438, 28.184781 ], [ 85.824767, 28.186984 ], [ 85.823151, 28.18904 ], [ 85.820949, 28.190949 ], [ 85.819774, 28.19183 ], [ 85.818746, 28.193299 ], [ 85.817865, 28.194621 ], [ 85.817571, 28.195942 ], [ 85.816983, 28.197998 ], [ 85.816249, 28.202551 ], [ 85.814193, 28.202404 ], [ 85.812431, 28.201376 ], [ 85.810522, 28.200055 ], [ 85.8092, 28.198292 ], [ 85.807437, 28.198586 ], [ 85.805382, 28.198586 ], [ 85.800388, 28.197411 ], [ 85.8004509, 28.192855 ], [ 85.800001, 28.1874682 ], [ 85.794497, 28.185863 ], [ 85.7915356, 28.1843113 ], [ 85.7878193, 28.1814396 ], [ 85.7820967, 28.1794937 ], [ 85.7801704, 28.1776939 ], [ 85.7794194, 28.1751199 ], [ 85.7740688, 28.1751174 ], [ 85.7718527, 28.1740906 ], [ 85.7687362, 28.1744632 ], [ 85.7651199, 28.1763475 ], [ 85.7594136, 28.1755983 ], [ 85.7518304, 28.1750493 ], [ 85.7427338, 28.1719634 ], [ 85.735585, 28.1710777 ], [ 85.7313176, 28.1703189 ], [ 85.7285183, 28.1700598 ], [ 85.7240007, 28.1716524 ], [ 85.7220333, 28.173455 ], [ 85.7177662, 28.1727958 ], [ 85.7127539, 28.1685644 ], [ 85.7135028, 28.1649654 ], [ 85.7135758, 28.1631737 ], [ 85.7117789, 28.1620306 ], [ 85.7020875, 28.1627247 ], [ 85.6978528, 28.1585555 ], [ 85.6941978, 28.1580868 ], [ 85.6912849, 28.1566848 ], [ 85.6854463, 28.1560742 ], [ 85.6825761, 28.1569992 ], [ 85.6801876, 28.1587135 ], [ 85.6701668, 28.1551648 ], [ 85.6659902, 28.1541 ], [ 85.6607695, 28.1545281 ], [ 85.656524, 28.1532649 ], [ 85.6518507, 28.151806 ], [ 85.6511293, 28.1510242 ], [ 85.6499701, 28.147709 ], [ 85.6479379, 28.1461673 ], [ 85.6454374, 28.1460448 ], [ 85.6411974, 28.1443959 ], [ 85.636149, 28.1403313 ], [ 85.6343656, 28.133071 ], [ 85.6295964, 28.1301947 ], [ 85.6228286, 28.1298096 ], [ 85.6184768, 28.1318129 ], [ 85.6177532, 28.1320488 ], [ 85.6157761, 28.1326933 ], [ 85.6150931, 28.1360479 ], [ 85.6143969, 28.137934 ], [ 85.616082, 28.1441916 ], [ 85.6150125, 28.1483255 ], [ 85.6096298, 28.1521416 ], [ 85.6016044, 28.1579331 ], [ 85.6008699, 28.1584631 ], [ 85.5934885, 28.155718 ], [ 85.5883263, 28.1545851 ], [ 85.5862878, 28.1534291 ], [ 85.5858802, 28.1531979 ], [ 85.5837575, 28.1544394 ], [ 85.5805419, 28.1568483 ], [ 85.5765287, 28.1572004 ], [ 85.5730387, 28.1602208 ], [ 85.5693411, 28.1620334 ], [ 85.5670067, 28.1619996 ], [ 85.5644115, 28.163482 ], [ 85.5585202, 28.1669144 ], [ 85.5524025, 28.168146 ], [ 85.5483635, 28.168581 ], [ 85.5399699, 28.1677152 ], [ 85.5366359, 28.1683771 ], [ 85.5331064, 28.1674401 ], [ 85.5324962, 28.165328 ], [ 85.5314867, 28.1622071 ], [ 85.527547, 28.1579479 ], [ 85.5206838, 28.1555179 ], [ 85.5112891, 28.153424 ], [ 85.5050748, 28.1516742 ], [ 85.500815, 28.1487172 ], [ 85.4939537, 28.1427106 ], [ 85.4903979, 28.1388579 ], [ 85.4909696, 28.1355229 ], [ 85.4928791, 28.1334448 ], [ 85.4934663, 28.1305821 ], [ 85.4937636, 28.128223 ], [ 85.4954451, 28.1244172 ], [ 85.4971321, 28.1189203 ], [ 85.4907589, 28.1128912 ], [ 85.4887526, 28.1119474 ], [ 85.4886205, 28.1082213 ], [ 85.4886026, 28.1043922 ], [ 85.4845637, 28.1061849 ], [ 85.4826722, 28.1055082 ], [ 85.4800345, 28.1055824 ], [ 85.4755407, 28.1059961 ], [ 85.4722838, 28.1045661 ], [ 85.4644288, 28.0984203 ], [ 85.4621654, 28.0972521 ], [ 85.4592787, 28.0937455 ], [ 85.4542443, 28.091536 ], [ 85.4440683, 28.090361 ], [ 85.4441088, 28.088114 ], [ 85.4440909, 28.0842817 ], [ 85.4419313, 28.0822407 ], [ 85.4434305, 28.0785311 ], [ 85.4485009, 28.0748144 ], [ 85.4564963, 28.0717935 ], [ 85.4649724, 28.0683153 ], [ 85.4723786, 28.0623871 ], [ 85.47707, 28.0564807 ], [ 85.4805613, 28.0541573 ], [ 85.4819071, 28.0505785 ], [ 85.4807446, 28.0478656 ], [ 85.4834802, 28.0442571 ], [ 85.4958428, 28.035922 ], [ 85.497442, 28.0235178 ], [ 85.4970138, 28.0225127 ], [ 85.4880035, 27.9929892 ], [ 85.4930218, 27.9751913 ], [ 85.4920204, 27.9734226 ], [ 85.4907555, 27.9711882 ], [ 85.4859852, 27.9710933 ], [ 85.4809588, 27.9658406 ], [ 85.4806656, 27.9636224 ], [ 85.479906, 27.9621386 ], [ 85.4786271, 27.9595333 ], [ 85.4812459, 27.9566868 ], [ 85.4813289, 27.9546878 ], [ 85.4823676, 27.9537194 ], [ 85.4823763, 27.9499564 ], [ 85.4820357, 27.9478126 ], [ 85.4825326, 27.9459232 ], [ 85.4830108, 27.9454563 ], [ 85.4819194, 27.9438638 ], [ 85.4822049, 27.9419635 ], [ 85.4819432, 27.9405292 ], [ 85.4818719, 27.939824 ], [ 85.4827807, 27.9358223 ], [ 85.4835599, 27.9335191 ], [ 85.4838002, 27.9331405 ], [ 85.4841092, 27.9326539 ], [ 85.4843841, 27.9311451 ], [ 85.4844227, 27.9309334 ], [ 85.4854626, 27.9298779 ], [ 85.4871258, 27.9265938 ], [ 85.487227, 27.9250043 ], [ 85.4877311, 27.9200672 ], [ 85.4849758, 27.916536 ], [ 85.483787, 27.9141648 ], [ 85.4831445, 27.9108388 ], [ 85.4793544, 27.9046374 ], [ 85.4788868, 27.9010258 ], [ 85.4788868, 27.8982864 ], [ 85.4764684, 27.894388 ], [ 85.4759261, 27.8891944 ], [ 85.4755317, 27.8854165 ], [ 85.4730281, 27.8827069 ], [ 85.4679218, 27.8819521 ], [ 85.4683494, 27.8798252 ], [ 85.4697363, 27.877924 ], [ 85.4700969, 27.8774296 ], [ 85.4697417, 27.8747111 ], [ 85.4690867, 27.8730607 ], [ 85.4693092, 27.8719508 ], [ 85.4699212, 27.8701475 ], [ 85.4691605, 27.8682823 ], [ 85.4658487, 27.8680552 ], [ 85.4655243, 27.865976 ], [ 85.462591, 27.8646734 ], [ 85.4613339, 27.8637293 ], [ 85.4607391, 27.8627374 ], [ 85.4607121, 27.8593196 ], [ 85.4565216, 27.8558538 ], [ 85.453381, 27.8523267 ], [ 85.4511159, 27.8503992 ], [ 85.45402, 27.8477016 ], [ 85.4548116, 27.844677 ], [ 85.4547351, 27.8445565 ], [ 85.4539541, 27.8433257 ], [ 85.4534084, 27.8424657 ], [ 85.452802, 27.8388941 ], [ 85.4527839, 27.83483 ], [ 85.4505569, 27.8338088 ], [ 85.448268, 27.8275358 ], [ 85.4481357, 27.8255737 ], [ 85.4490496, 27.8180558 ], [ 85.4501991, 27.8179106 ], [ 85.4509498, 27.8169769 ], [ 85.4507379, 27.8139057 ], [ 85.4515355, 27.8115818 ], [ 85.4525911, 27.8102954 ], [ 85.4531776, 27.8093616 ], [ 85.4544913, 27.8087391 ], [ 85.4563446, 27.8088014 ], [ 85.457283, 27.8080544 ], [ 85.4575176, 27.8066226 ], [ 85.4584752, 27.8056658 ], [ 85.4616613, 27.8052071 ], [ 85.4633972, 27.8041903 ], [ 85.4662871, 27.7989734 ], [ 85.4678218, 27.7975244 ], [ 85.4682695, 27.7897298 ], [ 85.4688091, 27.7881733 ], [ 85.4688091, 27.7863054 ], [ 85.4677065, 27.7849564 ], [ 85.4680349, 27.7838149 ], [ 85.4713915, 27.7807571 ], [ 85.4716261, 27.7792004 ], [ 85.4725348, 27.7785791 ], [ 85.4731744, 27.7781419 ], [ 85.4758548, 27.7783738 ], [ 85.4764469, 27.7784665 ], [ 85.4774735, 27.7791625 ], [ 85.4792094, 27.7806361 ], [ 85.4815844, 27.7811428 ], [ 85.4861611, 27.7805496 ], [ 85.4880066, 27.7802418 ], [ 85.4891327, 27.7803041 ], [ 85.4897338, 27.7810073 ], [ 85.4907279, 27.7821098 ], [ 85.4933757, 27.7844977 ], [ 85.494364, 27.785389 ], [ 85.4961986, 27.7859527 ], [ 85.4967039, 27.7862968 ], [ 85.4983695, 27.7863383 ], [ 85.5017595, 27.7847489 ], [ 85.50417, 27.7850569 ], [ 85.5059233, 27.7864801 ], [ 85.5087853, 27.7863764 ], [ 85.5106152, 27.7866669 ], [ 85.5117412, 27.786999 ], [ 85.5130314, 27.7866047 ], [ 85.5151193, 27.7867707 ], [ 85.5195122, 27.7889794 ], [ 85.5205444, 27.7891039 ], [ 85.5223273, 27.7898718 ], [ 85.5232825, 27.7906197 ], [ 85.5239792, 27.7901208 ], [ 85.5258205, 27.790561 ], [ 85.5268655, 27.7900621 ], [ 85.5292708, 27.7903996 ], [ 85.5302495, 27.7909573 ], [ 85.5307471, 27.7916176 ], [ 85.5310291, 27.792278 ], [ 85.531477, 27.7925861 ], [ 85.5323338, 27.7919037 ], [ 85.5335448, 27.7919477 ], [ 85.5342249, 27.7908764 ], [ 85.5349879, 27.7909351 ], [ 85.5372937, 27.7882789 ], [ 85.5382558, 27.7882789 ], [ 85.5388364, 27.7871783 ], [ 85.5399976, 27.7871636 ], [ 85.5401634, 27.7862831 ], [ 85.5409397, 27.7862172 ], [ 85.5422369, 27.786107 ], [ 85.5436303, 27.7851531 ], [ 85.5447418, 27.7849916 ], [ 85.5448579, 27.7837149 ], [ 85.5454385, 27.7837589 ], [ 85.5457401, 27.7837484 ], [ 85.5458976, 27.7839667 ], [ 85.5464669, 27.7842579 ], [ 85.5470309, 27.7830251 ], [ 85.5479598, 27.7830104 ], [ 85.5481423, 27.7821299 ], [ 85.5486731, 27.7821005 ], [ 85.5495191, 27.781308 ], [ 85.5508794, 27.7812493 ], [ 85.5514599, 27.7800165 ], [ 85.5520239, 27.7798551 ], [ 85.5524718, 27.7788424 ], [ 85.553654, 27.7780939 ], [ 85.5539921, 27.7770046 ], [ 85.5544638, 27.7767344 ], [ 85.5545893, 27.7765643 ], [ 85.554639, 27.7744361 ], [ 85.5562315, 27.7727923 ], [ 85.5574756, 27.7703852 ], [ 85.5585538, 27.7693138 ], [ 85.5590847, 27.7677579 ], [ 85.5602458, 27.7664809 ], [ 85.5621369, 27.7657324 ], [ 85.5633312, 27.7655122 ], [ 85.5648546, 27.7647992 ], [ 85.5649858, 27.7647378 ], [ 85.5654756, 27.7645086 ], [ 85.5657448, 27.7623702 ], [ 85.5659596, 27.760808 ], [ 85.5648101, 27.7590123 ], [ 85.5641571, 27.7555893 ], [ 85.5640429, 27.7552136 ], [ 85.5639465, 27.7550931 ], [ 85.5637034, 27.7550251 ], [ 85.563357, 27.7550441 ], [ 85.5629167, 27.7551884 ], [ 85.5620773, 27.7557729 ], [ 85.5616122, 27.7561945 ], [ 85.5608712, 27.7571748 ], [ 85.5604029, 27.7575218 ], [ 85.5600125, 27.7576576 ], [ 85.559679, 27.7576113 ], [ 85.5593722, 27.7575134 ], [ 85.5590183, 27.7572615 ], [ 85.5586235, 27.756892 ], [ 85.5581568, 27.7567044 ], [ 85.557916, 27.7566996 ], [ 85.5576546, 27.7568074 ], [ 85.5574697, 27.7569657 ], [ 85.5572217, 27.757042 ], [ 85.5568804, 27.7570633 ], [ 85.5563355, 27.7568749 ], [ 85.5555834, 27.7567452 ], [ 85.5543723, 27.7569626 ], [ 85.5534781, 27.7569397 ], [ 85.5526865, 27.7570871 ], [ 85.5517288, 27.7574583 ], [ 85.5510615, 27.7576521 ], [ 85.5503771, 27.7575434 ], [ 85.5500993, 27.7572157 ], [ 85.5499579, 27.7571014 ], [ 85.5498782, 27.7570599 ], [ 85.5497732, 27.756831 ], [ 85.5495956, 27.7564502 ], [ 85.5495895, 27.756335 ], [ 85.5495899, 27.7562381 ], [ 85.5496213, 27.7561121 ], [ 85.5495726, 27.7558882 ], [ 85.5492445, 27.7553434 ], [ 85.5492106, 27.7550362 ], [ 85.5493324, 27.754645 ], [ 85.5499458, 27.7540604 ], [ 85.5502391, 27.753698 ], [ 85.5502585, 27.7536712 ], [ 85.5507344, 27.7529904 ], [ 85.5515961, 27.7521557 ], [ 85.5527597, 27.7509046 ], [ 85.5529825, 27.7503836 ], [ 85.5532559, 27.7501496 ], [ 85.5533842, 27.7500156 ], [ 85.5536193, 27.7496323 ], [ 85.5538116, 27.749402 ], [ 85.5539614, 27.7492885 ], [ 85.5543254, 27.7492111 ], [ 85.554668, 27.7492102 ], [ 85.5554172, 27.7488819 ], [ 85.5556742, 27.7488823 ], [ 85.5559313, 27.7489752 ], [ 85.5561028, 27.7489951 ], [ 85.5563381, 27.7488419 ], [ 85.5564876, 27.7486314 ], [ 85.5569373, 27.7485143 ], [ 85.5574513, 27.7484745 ], [ 85.5581366, 27.7484929 ], [ 85.5584794, 27.7485303 ], [ 85.558908, 27.7486228 ], [ 85.559165, 27.748718 ], [ 85.559765, 27.7486971 ], [ 85.560129, 27.7486581 ], [ 85.5604502, 27.7486952 ], [ 85.5606216, 27.7487715 ], [ 85.5612218, 27.7489785 ], [ 85.5614788, 27.7489767 ], [ 85.5616501, 27.7489401 ], [ 85.5619071, 27.7488052 ], [ 85.5622496, 27.7486892 ], [ 85.5625916, 27.7484017 ], [ 85.5629981, 27.7481713 ], [ 85.5633403, 27.7478839 ], [ 85.5639813, 27.747004 ], [ 85.5641954, 27.7469453 ], [ 85.5647093, 27.7469822 ], [ 85.5648807, 27.7469434 ], [ 85.5649878, 27.7468475 ], [ 85.5651371, 27.7465806 ], [ 85.5653083, 27.7465034 ], [ 85.5657365, 27.7464267 ], [ 85.5659933, 27.7463301 ], [ 85.5661216, 27.7462141 ], [ 85.5662714, 27.7460036 ], [ 85.5667425, 27.7460401 ], [ 85.566978, 27.7459455 ], [ 85.5670847, 27.7458293 ], [ 85.5671487, 27.7456585 ], [ 85.5671693, 27.7452752 ], [ 85.5671261, 27.7449703 ], [ 85.5672758, 27.7449132 ], [ 85.5674473, 27.7449307 ], [ 85.5680473, 27.7452167 ], [ 85.5683046, 27.7452712 ], [ 85.5690756, 27.7452318 ], [ 85.5691611, 27.7451921 ], [ 85.5693321, 27.7449818 ], [ 85.5696961, 27.7449247 ], [ 85.5698676, 27.7449422 ], [ 85.570618, 27.7453403 ], [ 85.5708108, 27.7453603 ], [ 85.5712392, 27.7454143 ], [ 85.5720966, 27.7457954 ], [ 85.5722683, 27.745831 ], [ 85.5724397, 27.7459275 ], [ 85.5726113, 27.7461165 ], [ 85.5726974, 27.7462686 ], [ 85.5727193, 27.7465553 ], [ 85.5725061, 27.7470133 ], [ 85.5725068, 27.7472998 ], [ 85.5725927, 27.7475872 ], [ 85.5727219, 27.7478163 ], [ 85.5726793, 27.7480437 ], [ 85.5727011, 27.7481026 ], [ 85.5730225, 27.7482909 ], [ 85.5733446, 27.7485762 ], [ 85.5735379, 27.7489188 ], [ 85.5737311, 27.7491284 ], [ 85.5738168, 27.7491676 ], [ 85.5741166, 27.7491662 ], [ 85.5749733, 27.7490487 ], [ 85.5756587, 27.7490084 ], [ 85.5760012, 27.7489487 ], [ 85.5760863, 27.7489443 ], [ 85.5763653, 27.7489299 ], [ 85.5764508, 27.7489105 ], [ 85.5767939, 27.7490223 ], [ 85.5771369, 27.7492131 ], [ 85.5784232, 27.7497632 ], [ 85.5785945, 27.7497988 ], [ 85.5791087, 27.7498176 ], [ 85.5801372, 27.7499658 ], [ 85.5809295, 27.7499446 ], [ 85.5815072, 27.7498851 ], [ 85.5816786, 27.7498666 ], [ 85.5819818, 27.749802 ], [ 85.5822135, 27.7497525 ], [ 85.5826198, 27.7495604 ], [ 85.5827905, 27.7494448 ], [ 85.5830896, 27.7491389 ], [ 85.5834102, 27.7489278 ], [ 85.583538, 27.7486787 ], [ 85.5835589, 27.7485278 ], [ 85.583687, 27.7484321 ], [ 85.5839868, 27.7484307 ], [ 85.5846721, 27.7486204 ], [ 85.5851003, 27.7486203 ], [ 85.5861276, 27.7484481 ], [ 85.5872408, 27.748464 ], [ 85.5883533, 27.7481956 ], [ 85.5885243, 27.74808 ], [ 85.5890373, 27.7478507 ], [ 85.5893362, 27.7475266 ], [ 85.589656, 27.7470088 ], [ 85.5901252, 27.7464361 ], [ 85.5905312, 27.7461875 ], [ 85.5905953, 27.7461092 ], [ 85.5906639, 27.7460807 ], [ 85.5911941, 27.7458604 ], [ 85.5914509, 27.7458224 ], [ 85.5917932, 27.7457064 ], [ 85.591964, 27.7456314 ], [ 85.5923487, 27.7453443 ], [ 85.5931187, 27.7450363 ], [ 85.5933751, 27.7448833 ], [ 85.5938026, 27.7446914 ], [ 85.5943158, 27.7445387 ], [ 85.5945724, 27.744424 ], [ 85.5950217, 27.7443067 ], [ 85.5953, 27.7443073 ], [ 85.5954714, 27.7442887 ], [ 85.5957216, 27.7443226 ], [ 85.5959852, 27.7443819 ], [ 85.5974418, 27.7447058 ], [ 85.5978707, 27.7448771 ], [ 85.598128, 27.7450308 ], [ 85.5985569, 27.7453916 ], [ 85.5997361, 27.7460013 ], [ 85.6007443, 27.7466702 ], [ 85.6013453, 27.7471861 ], [ 85.601839, 27.7476626 ], [ 85.6020536, 27.7478137 ], [ 85.6026761, 27.7484065 ], [ 85.6032549, 27.7487507 ], [ 85.6037432, 27.7491972 ], [ 85.6040001, 27.7489328 ], [ 85.6044745, 27.748481 ], [ 85.6047953, 27.7483264 ], [ 85.6055431, 27.7478669 ], [ 85.6058846, 27.7475613 ], [ 85.6061193, 27.7471982 ], [ 85.6066525, 27.7465652 ], [ 85.6070458, 27.7463661 ], [ 85.607422, 27.7461263 ], [ 85.6078494, 27.745914 ], [ 85.6080845, 27.7457427 ], [ 85.6083411, 27.745628 ], [ 85.6095798, 27.7446501 ], [ 85.6098358, 27.7444023 ], [ 85.6099853, 27.7441917 ], [ 85.6104974, 27.7436171 ], [ 85.6108808, 27.7430051 ], [ 85.6110296, 27.7426412 ], [ 85.6110712, 27.7422603 ], [ 85.6111772, 27.741896 ], [ 85.6112618, 27.741572 ], [ 85.6114318, 27.7411135 ], [ 85.6116658, 27.7406534 ], [ 85.611793, 27.7401945 ], [ 85.6117919, 27.7398132 ], [ 85.6117266, 27.739508 ], [ 85.6117255, 27.7391245 ], [ 85.6116818, 27.7388195 ], [ 85.6117007, 27.7379783 ], [ 85.611807, 27.7376725 ], [ 85.6120417, 27.7374042 ], [ 85.6122964, 27.7366397 ], [ 85.6125088, 27.7361794 ], [ 85.6126351, 27.735416 ], [ 85.6126106, 27.7343464 ], [ 85.6127166, 27.7340407 ], [ 85.6129087, 27.7338103 ], [ 85.6131646, 27.7335421 ], [ 85.6135065, 27.7332748 ], [ 85.614062, 27.7329285 ], [ 85.6144675, 27.7325648 ], [ 85.6149804, 27.732297 ], [ 85.6156643, 27.7318753 ], [ 85.6160917, 27.7316833 ], [ 85.6166906, 27.731511 ], [ 85.6170325, 27.7313385 ], [ 85.6175455, 27.7311857 ], [ 85.6184872, 27.7310508 ], [ 85.6199415, 27.730666 ], [ 85.6206262, 27.7306254 ], [ 85.621142, 27.7303127 ], [ 85.6217599, 27.730339 ], [ 85.6219309, 27.7303 ], [ 85.6223854, 27.730449 ], [ 85.6230051, 27.7304551 ], [ 85.623605, 27.7302265 ], [ 85.6244201, 27.7297518 ], [ 85.6247211, 27.7294277 ], [ 85.6255585, 27.7287796 ], [ 85.6257299, 27.7287046 ], [ 85.6261581, 27.7286276 ], [ 85.6263329, 27.7284931 ], [ 85.6266103, 27.7284119 ], [ 85.6272079, 27.7282297 ], [ 85.6277655, 27.7279082 ], [ 85.6279805, 27.7277163 ], [ 85.628302, 27.7275255 ], [ 85.6289878, 27.7272999 ], [ 85.6295016, 27.7271854 ], [ 85.6297585, 27.727091 ], [ 85.6303794, 27.7269798 ], [ 85.6304652, 27.7269401 ], [ 85.6307875, 27.7266365 ], [ 85.63111, 27.7262358 ], [ 85.6313892, 27.7260062 ], [ 85.6321831, 27.725493 ], [ 85.6327839, 27.7250342 ], [ 85.6331914, 27.7248059 ], [ 85.6340716, 27.7241017 ], [ 85.6345877, 27.7235293 ], [ 85.6347379, 27.7233774 ], [ 85.6350177, 27.7230147 ], [ 85.6352972, 27.7227084 ], [ 85.6355774, 27.722251 ], [ 85.6357061, 27.7221169 ], [ 85.6359, 27.721812 ], [ 85.636084, 27.7216592 ], [ 85.6362007, 27.7215623 ], [ 85.636972, 27.7212789 ], [ 85.6377419, 27.7212616 ], [ 85.6380847, 27.7211883 ], [ 85.6383414, 27.7211886 ], [ 85.6390261, 27.7211141 ], [ 85.6392828, 27.721058 ], [ 85.6405478, 27.7203914 ], [ 85.6411274, 27.7199346 ], [ 85.6414496, 27.719631 ], [ 85.6415997, 27.7195355 ], [ 85.6420507, 27.7191158 ], [ 85.6426508, 27.718869 ], [ 85.6430791, 27.7187739 ], [ 85.6437644, 27.7185461 ], [ 85.6440215, 27.7184335 ], [ 85.6443852, 27.7184145 ], [ 85.6449406, 27.7186275 ], [ 85.6458376, 27.7193454 ], [ 85.6468276, 27.719763 ], [ 85.6475103, 27.7199523 ], [ 85.6488262, 27.7202311 ], [ 85.6490826, 27.720308 ], [ 85.6495102, 27.7203483 ], [ 85.6503663, 27.7201987 ], [ 85.6505374, 27.7202004 ], [ 85.6508793, 27.7202782 ], [ 85.6517119, 27.7206247 ], [ 85.652652, 27.7208391 ], [ 85.6531651, 27.7208013 ], [ 85.6535076, 27.7207256 ], [ 85.6540218, 27.720478 ], [ 85.654536, 27.720307 ], [ 85.6547717, 27.7201559 ], [ 85.6549007, 27.7200218 ], [ 85.6550724, 27.7199265 ], [ 85.6553085, 27.7196603 ], [ 85.655395, 27.7195078 ], [ 85.6556126, 27.7186662 ], [ 85.6557852, 27.718361 ], [ 85.6560877, 27.7176714 ], [ 85.6561317, 27.717444 ], [ 85.6561329, 27.7171372 ], [ 85.6559433, 27.716524 ], [ 85.6559442, 27.7162939 ], [ 85.6560307, 27.7160647 ], [ 85.6562243, 27.7158364 ], [ 85.6565678, 27.7155488 ], [ 85.6566535, 27.7155112 ], [ 85.6570398, 27.7151676 ], [ 85.6576201, 27.7145393 ], [ 85.6578346, 27.7143857 ], [ 85.6585418, 27.7141016 ], [ 85.6592265, 27.7139706 ], [ 85.6598259, 27.7137982 ], [ 85.6599975, 27.7137029 ], [ 85.6602542, 27.7136467 ], [ 85.660597, 27.7134943 ], [ 85.660854, 27.7134201 ], [ 85.6620767, 27.7125612 ], [ 85.6625908, 27.7123721 ], [ 85.6627615, 27.7123715 ], [ 85.6631032, 27.7124696 ], [ 85.6636161, 27.7125264 ], [ 85.6645563, 27.7127791 ], [ 85.6649844, 27.712799 ], [ 85.6652418, 27.7127429 ], [ 85.6656712, 27.7125553 ], [ 85.6661656, 27.712154 ], [ 85.6665962, 27.7116596 ], [ 85.6669198, 27.7111822 ], [ 85.6673511, 27.7105727 ], [ 85.6675237, 27.7102676 ], [ 85.667761, 27.7099608 ], [ 85.6680617, 27.7097516 ], [ 85.6683193, 27.7096188 ], [ 85.6688337, 27.7095267 ], [ 85.6692628, 27.7093571 ], [ 85.6696498, 27.7090901 ], [ 85.6698866, 27.708842 ], [ 85.6700598, 27.7085369 ], [ 85.670214, 27.7080014 ], [ 85.6702392, 27.7074648 ], [ 85.6701988, 27.7071598 ], [ 85.6703308, 27.7067009 ], [ 85.670875, 27.7055353 ], [ 85.671136, 27.705019 ], [ 85.6712873, 27.704849 ], [ 85.6714377, 27.7047534 ], [ 85.6722332, 27.7043933 ], [ 85.6730512, 27.7038417 ], [ 85.6737392, 27.7034625 ], [ 85.6742131, 27.7030994 ], [ 85.6750122, 27.702261 ], [ 85.6752924, 27.7020133 ], [ 85.6756154, 27.7017863 ], [ 85.6760449, 27.7016145 ], [ 85.6765594, 27.7015607 ], [ 85.6769032, 27.7014264 ], [ 85.6772463, 27.701353 ], [ 85.677932, 27.7013167 ], [ 85.6783826, 27.7012037 ], [ 85.6787265, 27.7010332 ], [ 85.67907, 27.7009192 ], [ 85.6794581, 27.7005777 ], [ 85.6796529, 27.7002908 ], [ 85.6797406, 27.7000616 ], [ 85.6798926, 27.6998799 ], [ 85.6802713, 27.6996099 ], [ 85.680564, 27.6991337 ], [ 85.6803013, 27.6982735 ], [ 85.6799283, 27.6978413 ], [ 85.679802, 27.6975355 ], [ 85.6795475, 27.6972286 ], [ 85.6794208, 27.6969973 ], [ 85.6795551, 27.6961951 ], [ 85.6795585, 27.695802 ], [ 85.6796019, 27.6954539 ], [ 85.6797628, 27.6951404 ], [ 85.6798325, 27.6948792 ], [ 85.6799452, 27.6946322 ], [ 85.6801475, 27.6942835 ], [ 85.6805587, 27.6937303 ], [ 85.6807529, 27.69352 ], [ 85.6809859, 27.6932405 ], [ 85.6812809, 27.6929697 ], [ 85.6815706, 27.6926182 ], [ 85.681753, 27.6924567 ], [ 85.6818013, 27.6923427 ], [ 85.6818817, 27.6921575 ], [ 85.6818335, 27.691388 ], [ 85.6814043, 27.6906327 ], [ 85.6811736, 27.6903667 ], [ 85.6808411, 27.6900675 ], [ 85.6805567, 27.689735 ], [ 85.6803969, 27.6894019 ], [ 85.680464, 27.689019 ], [ 85.6802992, 27.6886947 ], [ 85.6802724, 27.6882102 ], [ 85.6802885, 27.6872887 ], [ 85.6803583, 27.6869562 ], [ 85.6805031, 27.6864716 ], [ 85.680782, 27.6858256 ], [ 85.6811532, 27.6854973 ], [ 85.6813038, 27.6854017 ], [ 85.6817906, 27.6853126 ], [ 85.6822036, 27.6850798 ], [ 85.6826489, 27.6848661 ], [ 85.6831298, 27.6846837 ], [ 85.6834725, 27.6846869 ], [ 85.6837292, 27.6847255 ], [ 85.6840114, 27.6847948 ], [ 85.6848, 27.6850418 ], [ 85.6852345, 27.6851226 ], [ 85.6857817, 27.6851748 ], [ 85.6862967, 27.6851843 ], [ 85.6866346, 27.6851368 ], [ 85.6869672, 27.6850703 ], [ 85.6874232, 27.6847141 ], [ 85.6877397, 27.6843293 ], [ 85.6880616, 27.6831749 ], [ 85.6882064, 27.6825764 ], [ 85.688201, 27.6818733 ], [ 85.6881367, 27.6816453 ], [ 85.6880669, 27.6813793 ], [ 85.687788, 27.6805527 ], [ 85.6871892, 27.6801269 ], [ 85.6865971, 27.6798544 ], [ 85.686361, 27.6793223 ], [ 85.6864951, 27.6789518 ], [ 85.6865994, 27.6786685 ], [ 85.6868385, 27.6781252 ], [ 85.6870584, 27.6776169 ], [ 85.6875841, 27.6770278 ], [ 85.6881581, 27.676605 ], [ 85.6887375, 27.676187 ], [ 85.6892203, 27.6758069 ], [ 85.6894831, 27.6756501 ], [ 85.6897299, 27.6755314 ], [ 85.6899874, 27.6753461 ], [ 85.6905234, 27.6750871 ], [ 85.6914411, 27.6746477 ], [ 85.6916718, 27.6742677 ], [ 85.6920795, 27.6733698 ], [ 85.6921814, 27.6730467 ], [ 85.6923712, 27.6727744 ], [ 85.6928336, 27.6724921 ], [ 85.6934158, 27.6719223 ], [ 85.69387, 27.6712904 ], [ 85.6940858, 27.6710623 ], [ 85.6941943, 27.6708332 ], [ 85.6943701, 27.6702213 ], [ 85.6944149, 27.6699149 ], [ 85.6944176, 27.6695314 ], [ 85.6943853, 27.6692668 ], [ 85.6942839, 27.6690154 ], [ 85.6940338, 27.6685724 ], [ 85.6938378, 27.6680457 ], [ 85.6937162, 27.6677344 ], [ 85.6934323, 27.6671837 ], [ 85.6932701, 27.6661781 ], [ 85.6933947, 27.6656032 ], [ 85.6934605, 27.6653737 ], [ 85.6935073, 27.6647628 ], [ 85.6935675, 27.6646097 ], [ 85.6936486, 27.6643643 ], [ 85.6937635, 27.6641667 ], [ 85.693946, 27.6638255 ], [ 85.6941555, 27.6634185 ], [ 85.6942243, 27.6631408 ], [ 85.6947705, 27.6624966 ], [ 85.6952234, 27.6620656 ], [ 85.6956965, 27.6615867 ], [ 85.6967643, 27.6611018 ], [ 85.6986355, 27.6599879 ], [ 85.698851, 27.6597034 ], [ 85.6992169, 27.6593233 ], [ 85.6993678, 27.6590946 ], [ 85.6994972, 27.6588658 ], [ 85.6996286, 27.6583323 ], [ 85.6997586, 27.658029 ], [ 85.7001476, 27.6572679 ], [ 85.7003202, 27.6569593 ], [ 85.7004607, 27.6567104 ], [ 85.7008014, 27.65619 ], [ 85.7012484, 27.6559185 ], [ 85.7022575, 27.6556092 ], [ 85.7027429, 27.6554433 ], [ 85.7034095, 27.6552839 ], [ 85.7039463, 27.6549054 ], [ 85.7040753, 27.6547915 ], [ 85.7044971, 27.6543647 ], [ 85.7048803, 27.6539762 ], [ 85.7051868, 27.6537424 ], [ 85.7055147, 27.6536406 ], [ 85.7059788, 27.6534445 ], [ 85.7061704, 27.6527505 ], [ 85.7061406, 27.6524353 ], [ 85.7061851, 27.6521312 ], [ 85.7061652, 27.6518242 ], [ 85.7061024, 27.6515958 ], [ 85.7059551, 27.6511364 ], [ 85.7057006, 27.6507528 ], [ 85.7055947, 27.650524 ], [ 85.7053636, 27.6496826 ], [ 85.7053675, 27.6489179 ], [ 85.7054111, 27.6487649 ], [ 85.7054567, 27.6482306 ], [ 85.7055883, 27.6476205 ], [ 85.7056339, 27.6470863 ], [ 85.7055534, 27.6460929 ], [ 85.7055984, 27.6456354 ], [ 85.7056426, 27.6454057 ], [ 85.7057738, 27.644997 ], [ 85.7058039, 27.6445672 ], [ 85.7059526, 27.6438128 ], [ 85.7060473, 27.6431657 ], [ 85.7062114, 27.6428121 ], [ 85.7063417, 27.6425934 ], [ 85.7063681, 27.6421836 ], [ 85.7063681, 27.6421836 ], [ 85.7063988, 27.6417068 ] ] ] ] } }
]
}
